GLOBALSTAR M094         
1 39074U 13005C   24252.51915936 -.00000052  00000+0  28781-3 0  9992
2 39074  51.9978 319.7160 0000507  74.0924 285.9999 12.62267859536800
GLOBALSTAR M096         
1 39075U 13005D   24252.61157322 -.00000082  00000+0  12166-3 0  9994
2 39075  52.0102   7.7265 0000648  69.5987 290.4949 12.62269489535734
GLOBALSTAR M078         
1 39076U 13005E   24252.50581903 -.00000094  00000+0  54467-4 0  9993
2 39076  51.9862  92.9402 0000348 314.7357  45.3482 12.62274533534349
GLOBALSTAR M095         
1 39077U 13005F   24252.53233728 -.00000087  00000+0  93055-4 0  9994
2 39077  51.9790  90.1968 0000681  27.8860 332.2043 12.62264556534208
GLOBALSTAR M087         
1 52888U 22064A   24252.49915931 -.00000066  00000+0  11764-3 0  9995
2 52888  51.9750 277.8762 0009182 213.8179 146.2136 13.37584741108678
